satname,norad_id,inclination_deg,eccentricity,mean_motion_rev_per_day,perigee_km,apogee_km,l1,l2
STARLINK-1304,45376,53.0551,0.0001451,15.06427884,546.1212431369031,548.1309544881778,1 45376U 20019S   25308.46593915  .00010344  00000+0  71180-3 0  9998,2 45376  53.0551   8.7681 0001451  89.8113 270.3042 15.06427884310857
STARLINK-1305,45377,53.0541,0.0001871,15.31649325,469.60960577876267,472.1725120784131,1 45377U 20019T   25308.53847902  .00044587  00000+0  14421-2 0  9995,2 45377  53.0541   5.4313 0001871  58.6535 301.4648 15.31649325310910
STARLINK-1319,45379,53.0541,0.0001077,15.29319991,477.10548841378113,478.5822666948061,1 45379U 20019V   25308.91668980  .01727394  00000+0  54006-1 0  9993,2 45379  53.0541   5.8414 0001077  70.9272 222.2711 15.29319991  5744
STARLINK-1266,45383,53.0553,0.0001706,15.06385925,546.0732242986314,548.4361679453477,1 45383U 20019Z   25308.48623383 -.00000601  00000+0 -21466-4 0  9991,2 45383  53.0553 348.6821 0001706  78.8309 281.2872 15.06385925311130
STARLINK-1267,45384,53.055,0.0001838,15.06406165,545.9197875735499,548.4655387577304,1 45384U 20019AA  25308.80328990 -.00001130  00000+0 -56980-4 0  9991,2 45384  53.0550 347.9137 0001838  85.2388 274.8811 15.06406165311170
STARLINK-1272,45386,53.053,0.0002596,15.34137547,461.70733237847435,465.2595016989999,1 45386U 20019AC  25308.79530451  .00063848  00000+0  19003-2 0  9993,2 45386  53.0530 344.3266 0002596  32.5290 327.5870 15.34137547311226
STARLINK-1274,45387,53.0349,0.0003213,15.29319692,475.64194422782657,480.0475981139798,1 45387U 20019AD  25308.51069800  .00030156  00000+0  10541-2 0  9993,2 45387  53.0349 333.1763 0003213 283.2942  76.7699 15.29319692311352
STARLINK-1280,45388,53.0544,0.0002765,15.39721644,445.044634984346,448.8188980122195,1 45388U 20019AE  25308.85414958  .00060389  00000+0  15025-2 0  9992,2 45388  53.0544   3.3771 0002765  26.9812 333.1334 15.39721644310950
STARLINK-1283,45389,53.0537,0.0004027,15.30585083,471.30614010876616,476.82490402003623,1 45389U 20019AF  25308.51410722  .00058937  00000+0  19624-2 0  9996,2 45389  53.0537 344.3333 0004027  23.4069 336.7113 15.30585083311203
STARLINK-1284,45390,53.0546,0.0001411,15.0640674,546.2137371192202,548.1680646528512,1 45390U 20019AG  25308.82163578 -.00001992  00000+0 -11485-3 0  9995,2 45390  53.0546 347.1760 0001411  90.5553 269.5597 15.06406740311188
STARLINK-1292,45394,53.0419,0.0007584,15.9893395,272.3277845456978,282.4228656403993,1 45394U 20019AL  25308.91668980  .00508277  12180-3  10316-2 0  9999,2 45394  53.0419 293.9783 0007584  41.3142  36.0627 15.98933950  6012
STARLINK-1297,45395,53.055,0.0001413,15.06419305,546.1738481345483,548.1309349165931,1 45395U 20019AM  25308.52675691  .00003759  00000+0  27099-3 0  9990,2 45395  53.0550 348.4972 0001413  90.8481 269.2670 15.06419305310327
STARLINK-1307,45397,53.0557,0.000134,15.06396921,546.2929966746115,548.1489926171762,1 45397U 20019AP  25308.85111520 -.00000075  00000+0  13892-4 0  9990,2 45397  53.0557 347.0403 0001340  86.0124 274.1018 15.06396921311016
STARLINK-1312,45398,53.0381,0.0004357,16.0688342,252.51647069292994,258.29694067806395,1 45398U 20019AQ  25308.45422490  .01371253  11747-2  17596-2 0  9993,2 45398  53.0381 295.3485 0004357  60.4655 299.6811 16.06883420311630
STARLINK-1255,45399,53.0493,0.0002601,15.30619773,472.17975841433963,475.7442203086057,1 45399U 20019AR  25308.52264742  .00062113  00000+0  20646-2 0  9994,2 45399  53.0493 335.3834 0002601  42.8943 317.2259 15.30619773311134
STARLINK-1260,45404,53.0542,0.0001374,15.06403333,546.249801303853,548.1528842804519,1 45404U 20019AW  25308.78569946  .00000503  00000+0  52653-4 0  9993,2 45404  53.0542 337.3312 0001374  82.2587 277.8558 15.06403333311035
STARLINK-1263,45405,53.0529,0.0001507,15.06395711,546.1810511280755,548.2683551454011,1 45405U 20019AX  25308.50558715  .00005107  00000+0  36154-3 0  9998,2 45405  53.0529 338.5919 0001507  79.5323 280.5835 15.06395711310995
STARLINK-1265,45406,53.0561,0.0001484,15.06402476,546.176248765426,548.231689965135,1 45406U 20019AY  25308.77832836  .00000571  00000+0  57229-4 0  9994,2 45406  53.0561 337.3653 0001484  80.4095 279.7062 15.06402476311030
STARLINK-1278,45408,53.054,0.0002466,15.33475897,463.7636194254892,467.1388771495458,1 45408U 20019BA  25308.85133307  .00046726  00000+0  14263-2 0  9993,2 45408  53.0540   4.0262 0002466  14.0481 346.0588 15.33475897310673
STARLINK-1296,45412,53.0557,0.0001661,15.0638285,546.1138115907524,548.4144298430547,1 45412U 20019BE  25308.38394724 -.00003098  00000+0 -18922-3 0  9992,2 45412  53.0557 339.1362 0001661  92.4626 267.6554 15.06382850310976
STARLINK-1298,45413,53.0476,0.0008548,15.53605392,400.4103554753128,412.00887444825185,1 45413U 20019BF  25308.91668980  .00149258  00000+0  22625-2 0  9991,2 45413  53.0476 311.4087 0008548 334.7401 197.9730 15.53605392  5915
STARLINK-1309,45414,53.0542,0.0001827,15.06412614,545.9076439964092,548.4381522331805,1 45414U 20019BG  25308.79676799  .00006954  00000+0  48514-3 0  9996,2 45414  53.0542 337.2811 0001827  79.7553 280.3642 15.06412614311020
STARLINK-1316,45415,53.0546,0.0001309,15.06399799,546.305645767523,548.1187021812693,1 45415U 20019BH  25308.82256007  .00000437  00000+0  48220-4 0  9992,2 45415  53.0546 337.1684 0001309  86.6372 273.4767 15.06399799311066
STARLINK-1318,45416,53.0511,0.0005543,15.607609,381.708874316967,389.20699566189614,1 45416U 20019BJ  25308.72286841  .00049456  00000+0  58575-3 0  9998,2 45416  53.0511 303.6378 0005543  48.9168 311.2322 15.60760900311519
STARLINK-1286,45417,53.0555,0.000121,15.35722341,457.9485180597403,459.6030509535922,1 45417U 20019BK  25308.91668980  .00054643  00000+0  15499-2 0  9999,2 45417  53.0555   4.1818 0001210  54.3168 126.8928 15.35722341  5788
STARLINK-1308,45419,53.0548,0.0001883,15.06401192,545.9038621868231,548.5119470779073,1 45419U 20019BM  25308.85665007 -.00001372  00000+0 -73240-4 0  9994,2 45419  53.0548   7.0149 0001883  87.0921 273.0283 15.06401192310657
STARLINK-1329,45531,53.054,0.0001345,15.0641336,546.2391578913075,548.1020656388719,1 45531U 20025A   25308.29454248  .00005198  00000+0  36743-3 0  9991,2 45531  53.0540 309.5400 0001345  80.9216 279.1926 15.06413360306191
STARLINK-1338,45532,53.0537,0.0001397,15.06400633,546.2421469626079,548.1770888076453,1 45532U 20025B   25308.70368722 -.00000727  00000+0 -29919-4 0  9992,2 45532  53.0537 307.7008 0001397  84.5111 275.6037 15.06400633306253
STARLINK-1350,45535,53.0745,0.0001971,15.32379934,467.3643825234867,470.0634111470199,1 45535U 20025E   25308.85507485  .00012251  00000+0  39741-3 0  9998,2 45535  53.0745 257.8145 0001971  69.5603 290.5609 15.32379934306991
STARLINK-1362,45538,53.0538,0.0001458,15.06416751,546.1505106770674,548.1699273461318,1 45538U 20025H   25308.27145846  .00006947  00000+0  48461-3 0  9990,2 45538  53.0538 309.3607 0001458  84.6398 275.4757 15.06416751306197
STARLINK-1368,45540,53.054,0.0001457,15.06419648,546.1423257914421,548.1603548138073,1 45540U 20025K   25308.74054497  .00006499  00000+0  45453-3 0  9996,2 45540  53.0540 307.5369 0001457  88.7072 271.4083 15.06419648306254
STARLINK-1371,45542,53.0541,0.0001228,15.06396411,546.372123574517,548.0729918818952,1 45542U 20025M   25308.71106321  .00001161  00000+0  96794-4 0  9995,2 45542  53.0541 307.6681 0001228  91.9607 268.1523 15.06396411306255
STARLINK-1372,45543,53.0545,0.000145,15.06415635,546.1594707368859,548.167807922292,1 45543U 20025N   25308.28348682  .00004626  00000+0  32909-3 0  9992,2 45543  53.0545 309.5890 0001450  89.3125 270.8030 15.06415635305281
STARLINK-1373,45544,53.055,0.0001406,15.0641276,546.1987521433412,548.1461491608643,1 45544U 20025P   25308.30191659  .00002269  00000+0  17112-3 0  9996,2 45544  53.0550 309.5055 0001406  94.0617 266.0532 15.06412760306192
STARLINK-1294,45551,53.0494,0.0008271,15.60261425,381.3059480251559,392.49667439956283,1 45551U 20025W   25308.08293456  .00077086  00000+0  92319-3 0  9998,2 45551  53.0494 242.2519 0008271  66.1938 293.9940 15.60261425307124
STARLINK-1325,45554,53.0556,0.0001805,15.62182525,380.133864379869,382.57404061371926,1 45554U 20025Z   25308.81557257  .00116320  00000+0  12863-2 0  9994,2 45554  53.0556 231.5775 0001805 130.5037 229.6133 15.62182525307342
STARLINK-1327,45555,53.0542,0.0001589,15.06405985,546.09277986487,548.2936498071449,1 45555U 20025AA  25308.67236029  .00001479  00000+0  11814-3 0  9994,2 45555  53.0542 287.8425 0001589  90.7068 269.4103 15.06405985306528
STARLINK-1356,45564,53.0556,0.0001469,15.06413847,546.151791733786,548.1864466716079,1 45564U 20025AK  25308.27795341  .00002337  00000+0  17570-3 0  9996,2 45564  53.0556 289.6119 0001469  90.3211 269.7946 15.06413847306463
STARLINK-1357,45565,53.0628,0.0008115,15.33042152,461.18740982720647,472.2966484915314,1 45565U 20025AL  25308.63117905  .00090552  00000+0  27730-2 0  9995,2 45565  53.0628 272.3193 0008115  19.5484 340.5826 15.33042152306748
STARLINK-1361,45567,53.0544,0.0001274,15.06394762,546.3453202488545,548.1099031519152,1 45567U 20025AN  25308.16370248  .00000528  00000+0  54349-4 0  9998,2 45567  53.0544 290.1237 0001274  87.3652 272.7483 15.06394762306453
STARLINK-1363,45568,53.0536,0.0002661,15.41678004,439.3420091652333,442.9712372314998,1 45568U 20025AP  25308.24271214  .00109788  00000+0  25365-2 0  9993,2 45568  53.0536 286.4797 0002661  91.6514 268.4796 15.41678004306508
STARLINK-1366,45569,53.0532,0.0002618,15.40349417,443.29094121947855,446.8635762053409,1 45569U 20025AQ  25308.20667588  .00113299  00000+0  27338-2 0  9997,2 45569  53.0532 286.1309 0002618  83.1524 276.9778 15.40349417306506
STARLINK-1376,45570,53.056,0.000149,15.06410268,546.1482159297575,548.2119604220334,1 45570U 20025AR  25308.22636775  .00002662  00000+0  19750-3 0  9996,2 45570  53.0560 289.8441 0001490  95.7245 264.3914 15.06410268306454
